[{"OBJECT_NAME":"ONEWEB-0528","OBJECT_ID":"2022-166B","EPOCH":"2026-01-13T03:37:32.625120","MEAN_MOTION":13.2182752,"ECCENTRICITY":0.00015033,"INCLINATION":87.9221,"RA_OF_ASC_NODE":274.93,"ARG_OF_PERICENTER":72.7855,"MEAN_ANOMALY":287.3443,"EPHEMERIS_TYPE":0,"CLASSIFICATION_TYPE":"U","NORAD_CAT_ID":54643,"ELEMENT_SET_NO":999,"REV_AT_EPOCH":15106,"BSTAR":0.00022394516,"MEAN_MOTION_DOT":1.06e-6,"MEAN_MOTION_DDOT":0},{"OBJECT_NAME":"ONEWEB-0539","OBJECT_ID":"2022-166C","EPOCH":"2026-01-13T04:32:02.080608","MEAN_MOTION":13.21824936,"ECCENTRICITY":0.00017523,"INCLINATION":87.9218,"RA_OF_ASC_NODE":274.8875,"ARG_OF_PERICENTER":70.5121,"MEAN_ANOMALY":289.6202,"EPHEMERIS_TYPE":0,"CLASSIFICATION_TYPE":"U","NORAD_CAT_ID":54644,"ELEMENT_SET_NO":999,"REV_AT_EPOCH":15106,"BSTAR":0.00012178508,"MEAN_MOTION_DOT":6.3e-7,"MEAN_MOTION_DDOT":0},{"OBJECT_NAME":"ONEWEB-0540","OBJECT_ID":"2022-166D","EPOCH":"2026-01-13T04:41:42.705024","MEAN_MOTION":13.21827836,"ECCENTRICITY":0.00017638,"INCLINATION":87.9218,"RA_OF_ASC_NODE":274.9239,"ARG_OF_PERICENTER":76.1709,"MEAN_ANOMALY":283.9621,"EPHEMERIS_TYPE":0,"CLASSIFICATION_TYPE":"U","NORAD_CAT_ID":54645,"ELEMENT_SET_NO":999,"REV_AT_EPOCH":15105,"BSTAR":0.00026721266,"MEAN_MOTION_DOT":1.23e-6,"MEAN_MOTION_DDOT":0},{"OBJECT_NAME":"ONEWEB-0542","OBJECT_ID":"2022-166E","EPOCH":"2026-01-13T04:46:16.114368","MEAN_MOTION":13.21825378,"ECCENTRICITY":0.00019546,"INCLINATION":87.9215,"RA_OF_ASC_NODE":274.881,"ARG_OF_PERICENTER":72.8711,"MEAN_ANOMALY":287.2637,"EPHEMERIS_TYPE":0,"CLASSIFICATION_TYPE":"U","NORAD_CAT_ID":54646,"ELEMENT_SET_NO":999,"REV_AT_EPOCH":15106,"BSTAR":0.0002493423,"MEAN_MOTION_DOT":1.16e-6,"MEAN_MOTION_DDOT":0},{"OBJECT_NAME":"ONEWEB-0545","OBJECT_ID":"2022-166F","EPOCH":"2026-01-13T03:56:30.364512","MEAN_MOTION":13.21825365,"ECCENTRICITY":0.00021177,"INCLINATION":87.9217,"RA_OF_ASC_NODE":274.9096,"ARG_OF_PERICENTER":74.2204,"MEAN_ANOMALY":285.9164,"EPHEMERIS_TYPE":0,"CLASSIFICATION_TYPE":"U","NORAD_CAT_ID":54647,"ELEMENT_SET_NO":999,"REV_AT_EPOCH":15102,"BSTAR":0.00010261076,"MEAN_MOTION_DOT":5.5e-7,"MEAN_MOTION_DDOT":0},{"OBJECT_NAME":"ONEWEB-0580","OBJECT_ID":"2022-166G","EPOCH":"2026-01-13T05:07:34.898304","MEAN_MOTION":13.21828911,"ECCENTRICITY":0.00019984,"INCLINATION":87.9222,"RA_OF_ASC_NODE":274.8991,"ARG_OF_PERICENTER":78.5274,"MEAN_ANOMALY":281.6085,"EPHEMERIS_TYPE":0,"CLASSIFICATION_TYPE":"U","NORAD_CAT_ID":54648,"ELEMENT_SET_NO":999,"REV_AT_EPOCH":15107,"BSTAR":0.00023754917,"MEAN_MOTION_DOT":1.11e-6,"MEAN_MOTION_DDOT":0},{"OBJECT_NAME":"ONEWEB-0582","OBJECT_ID":"2022-166H","EPOCH":"2026-01-13T04:20:11.826816","MEAN_MOTION":13.21825799,"ECCENTRICITY":0.00020871,"INCLINATION":87.922,"RA_OF_ASC_NODE":274.8986,"ARG_OF_PERICENTER":74.3678,"MEAN_ANOMALY":285.7686,"EPHEMERIS_TYPE":0,"CLASSIFICATION_TYPE":"U","NORAD_CAT_ID":54649,"ELEMENT_SET_NO":999,"REV_AT_EPOCH":15104,"BSTAR":7.7495248e-5,"MEAN_MOTION_DOT":4.5e-7,"MEAN_MOTION_DDOT":0},{"OBJECT_NAME":"ONEWEB-0583","OBJECT_ID":"2022-166J","EPOCH":"2026-01-13T04:36:47.084832","MEAN_MOTION":13.21825222,"ECCENTRICITY":0.00017041,"INCLINATION":87.9216,"RA_OF_ASC_NODE":274.9199,"ARG_OF_PERICENTER":73.2704,"MEAN_ANOMALY":286.8616,"EPHEMERIS_TYPE":0,"CLASSIFICATION_TYPE":"U","NORAD_CAT_ID":54650,"ELEMENT_SET_NO":999,"REV_AT_EPOCH":15105,"BSTAR":0.00024638872,"MEAN_MOTION_DOT":1.15e-6,"MEAN_MOTION_DDOT":0},{"OBJECT_NAME":"ONEWEB-0584","OBJECT_ID":"2022-166K","EPOCH":"2026-01-13T05:05:14.061120","MEAN_MOTION":13.21826155,"ECCENTRICITY":0.00019748,"INCLINATION":87.9224,"RA_OF_ASC_NODE":274.9035,"ARG_OF_PERICENTER":79.4851,"MEAN_ANOMALY":280.6505,"EPHEMERIS_TYPE":0,"CLASSIFICATION_TYPE":"U","NORAD_CAT_ID":54651,"ELEMENT_SET_NO":999,"REV_AT_EPOCH":15104,"BSTAR":0.00020664273,"MEAN_MOTION_DOT":9.8e-7,"MEAN_MOTION_DDOT":0},{"OBJECT_NAME":"ONEWEB-0585","OBJECT_ID":"2022-166L","EPOCH":"2026-01-13T03:51:44.853984","MEAN_MOTION":13.21828174,"ECCENTRICITY":0.00014883,"INCLINATION":87.922,"RA_OF_ASC_NODE":274.8979,"ARG_OF_PERICENTER":78.0661,"MEAN_ANOMALY":282.064,"EPHEMERIS_TYPE":0,"CLASSIFICATION_TYPE":"U","NORAD_CAT_ID":54652,"ELEMENT_SET_NO":999,"REV_AT_EPOCH":15104,"BSTAR":0.00023768338,"MEAN_MOTION_DOT":1.11e-6,"MEAN_MOTION_DDOT":0},{"OBJECT_NAME":"ONEWEB-0586","OBJECT_ID":"2022-166M","EPOCH":"2026-01-13T04:10:42.544992","MEAN_MOTION":13.21828422,"ECCENTRICITY":0.0001728,"INCLINATION":87.9218,"RA_OF_ASC_NODE":274.9204,"ARG_OF_PERICENTER":73.8277,"MEAN_ANOMALY":286.3047,"EPHEMERIS_TYPE":0,"CLASSIFICATION_TYPE":"U","NORAD_CAT_ID":54653,"ELEMENT_SET_NO":999,"REV_AT_EPOCH":15104,"BSTAR":2.7257e-5,"MEAN_MOTION_DOT":2.4e-7,"MEAN_MOTION_DDOT":0},{"OBJECT_NAME":"ONEWEB-0587","OBJECT_ID":"2022-166N","EPOCH":"2026-01-13T04:24:55.899648","MEAN_MOTION":13.21825733,"ECCENTRICITY":0.00012146,"INCLINATION":87.9228,"RA_OF_ASC_NODE":274.8774,"ARG_OF_PERICENTER":81.3001,"MEAN_ANOMALY":278.827,"EPHEMERIS_TYPE":0,"CLASSIFICATION_TYPE":"U","NORAD_CAT_ID":54654,"ELEMENT_SET_NO":999,"REV_AT_EPOCH":15120,"BSTAR":6.9631667e-5,"MEAN_MOTION_DOT":4.2e-7,"MEAN_MOTION_DDOT":0},{"OBJECT_NAME":"ONEWEB-0589","OBJECT_ID":"2022-166P","EPOCH":"2026-01-13T04:05:58.578432","MEAN_MOTION":13.21825459,"ECCENTRICITY":0.00024249,"INCLINATION":87.9217,"RA_OF_ASC_NODE":274.9114,"ARG_OF_PERICENTER":79.1708,"MEAN_ANOMALY":280.9698,"EPHEMERIS_TYPE":0,"CLASSIFICATION_TYPE":"U","NORAD_CAT_ID":54655,"ELEMENT_SET_NO":999,"REV_AT_EPOCH":15106,"BSTAR":0.00021425047,"MEAN_MOTION_DOT":1.02e-6,"MEAN_MOTION_DDOT":0},{"OBJECT_NAME":"ONEWEB-0590","OBJECT_ID":"2022-166Q","EPOCH":"2026-01-13T04:41:19.383936","MEAN_MOTION":13.21825396,"ECCENTRICITY":0.00016492,"INCLINATION":87.9221,"RA_OF_ASC_NODE":274.8841,"ARG_OF_PERICENTER":91.4095,"MEAN_ANOMALY":268.7228,"EPHEMERIS_TYPE":0,"CLASSIFICATION_TYPE":"U","NORAD_CAT_ID":54656,"ELEMENT_SET_NO":999,"REV_AT_EPOCH":15105,"BSTAR":0.00024508366,"MEAN_MOTION_DOT":1.14e-6,"MEAN_MOTION_DDOT":0},{"OBJECT_NAME":"ONEWEB-0591","OBJECT_ID":"2022-166R","EPOCH":"2026-01-13T04:58:05.534400","MEAN_MOTION":13.21828556,"ECCENTRICITY":0.00016742,"INCLINATION":87.922,"RA_OF_ASC_NODE":274.905,"ARG_OF_PERICENTER":79.0183,"MEAN_ANOMALY":281.114,"EPHEMERIS_TYPE":0,"CLASSIFICATION_TYPE":"U","NORAD_CAT_ID":54657,"ELEMENT_SET_NO":999,"REV_AT_EPOCH":15108,"BSTAR":0.00026492687,"MEAN_MOTION_DOT":1.22e-6,"MEAN_MOTION_DDOT":0},{"OBJECT_NAME":"ONEWEB-0592","OBJECT_ID":"2022-166S","EPOCH":"2026-01-13T05:02:49.165728","MEAN_MOTION":13.21829019,"ECCENTRICITY":0.00016709,"INCLINATION":87.9228,"RA_OF_ASC_NODE":274.8701,"ARG_OF_PERICENTER":77.8159,"MEAN_ANOMALY":282.3162,"EPHEMERIS_TYPE":0,"CLASSIFICATION_TYPE":"U","NORAD_CAT_ID":54658,"ELEMENT_SET_NO":999,"REV_AT_EPOCH":15096,"BSTAR":0.00032346611,"MEAN_MOTION_DOT":1.47e-6,"MEAN_MOTION_DDOT":0},{"OBJECT_NAME":"ONEWEB-0593","OBJECT_ID":"2022-166T","EPOCH":"2026-01-13T03:47:00.940128","MEAN_MOTION":13.21825257,"ECCENTRICITY":0.00016975,"INCLINATION":87.9217,"RA_OF_ASC_NODE":274.9046,"ARG_OF_PERICENTER":71.5589,"MEAN_ANOMALY":288.5729,"EPHEMERIS_TYPE":0,"CLASSIFICATION_TYPE":"U","NORAD_CAT_ID":54659,"ELEMENT_SET_NO":999,"REV_AT_EPOCH":15106,"BSTAR":0.00012947431,"MEAN_MOTION_DOT":6.6e-7,"MEAN_MOTION_DDOT":0},{"OBJECT_NAME":"ONEWEB-0594","OBJECT_ID":"2022-166U","EPOCH":"2026-01-13T04:15:26.137440","MEAN_MOTION":13.21828722,"ECCENTRICITY":0.00015131,"INCLINATION":87.922,"RA_OF_ASC_NODE":274.9188,"ARG_OF_PERICENTER":74.7436,"MEAN_ANOMALY":285.3865,"EPHEMERIS_TYPE":0,"CLASSIFICATION_TYPE":"U","NORAD_CAT_ID":54660,"ELEMENT_SET_NO":999,"REV_AT_EPOCH":15108,"BSTAR":2.2223822e-5,"MEAN_MOTION_DOT":2.2e-7,"MEAN_MOTION_DDOT":0},{"OBJECT_NAME":"ONEWEB-0595","OBJECT_ID":"2022-166V","EPOCH":"2026-01-13T03:42:15.686208","MEAN_MOTION":13.21828249,"ECCENTRICITY":0.00014291,"INCLINATION":87.9216,"RA_OF_ASC_NODE":274.8957,"ARG_OF_PERICENTER":78.7718,"MEAN_ANOMALY":281.3576,"EPHEMERIS_TYPE":0,"CLASSIFICATION_TYPE":"U","NORAD_CAT_ID":54661,"ELEMENT_SET_NO":999,"REV_AT_EPOCH":15105,"BSTAR":0.00010370843,"MEAN_MOTION_DOT":5.6e-7,"MEAN_MOTION_DDOT":0},{"OBJECT_NAME":"ONEWEB-0596","OBJECT_ID":"2022-166W","EPOCH":"2026-01-13T04:53:21.554880","MEAN_MOTION":13.21828167,"ECCENTRICITY":0.00015877,"INCLINATION":87.9219,"RA_OF_ASC_NODE":274.9032,"ARG_OF_PERICENTER":79.0911,"MEAN_ANOMALY":281.0401,"EPHEMERIS_TYPE":0,"CLASSIFICATION_TYPE":"U","NORAD_CAT_ID":54662,"ELEMENT_SET_NO":999,"REV_AT_EPOCH":15106,"BSTAR":0.00022060372,"MEAN_MOTION_DOT":1.04e-6,"MEAN_MOTION_DDOT":0},{"OBJECT_NAME":"ONEWEB-0597","OBJECT_ID":"2022-166X","EPOCH":"2026-01-13T04:27:18.387072","MEAN_MOTION":13.21825208,"ECCENTRICITY":0.00017431,"INCLINATION":87.9218,"RA_OF_ASC_NODE":274.9117,"ARG_OF_PERICENTER":76.2889,"MEAN_ANOMALY":283.8439,"EPHEMERIS_TYPE":0,"CLASSIFICATION_TYPE":"U","NORAD_CAT_ID":54663,"ELEMENT_SET_NO":999,"REV_AT_EPOCH":15106,"BSTAR":0.00013960732,"MEAN_MOTION_DOT":7.1e-7,"MEAN_MOTION_DDOT":0},{"OBJECT_NAME":"ONEWEB-0600","OBJECT_ID":"2022-166Y","EPOCH":"2026-01-13T04:01:14.416608","MEAN_MOTION":13.21825224,"ECCENTRICITY":0.00016929,"INCLINATION":87.9217,"RA_OF_ASC_NODE":274.9064,"ARG_OF_PERICENTER":71.148,"MEAN_ANOMALY":288.9837,"EPHEMERIS_TYPE":0,"CLASSIFICATION_TYPE":"U","NORAD_CAT_ID":54664,"ELEMENT_SET_NO":999,"REV_AT_EPOCH":15103,"BSTAR":0.00017122851,"MEAN_MOTION_DOT":8.4e-7,"MEAN_MOTION_DDOT":0},{"OBJECT_NAME":"ONEWEB-0601","OBJECT_ID":"2022-166Z","EPOCH":"2026-01-13T03:49:23.498400","MEAN_MOTION":13.21825612,"ECCENTRICITY":0.0001896,"INCLINATION":87.9219,"RA_OF_ASC_NODE":274.9258,"ARG_OF_PERICENTER":76.0543,"MEAN_ANOMALY":284.0802,"EPHEMERIS_TYPE":0,"CLASSIFICATION_TYPE":"U","NORAD_CAT_ID":54665,"ELEMENT_SET_NO":999,"REV_AT_EPOCH":15122,"BSTAR":0.00019915042,"MEAN_MOTION_DOT":9.5e-7,"MEAN_MOTION_DDOT":0}]
